{"type": "FeatureCollection", "features": [ {"type": "Feature", "properties": {"norad_id": 66654, "name": "JACK E", "group": "last-30-days", "lat": -57.66241300176236, "lon": -66.21519634293819, "alt_km": 596.1210953229665, "timestamp": "2025-12-20T07:33:49.512808+00:00", "meta": {"OBJECT_NAME": "JACK E", "OBJECT_ID": "2025-274E", "EPOCH": "2025-12-19T20:33:34.388064", "MEAN_MOTION": 14.92117883, "ECCENTRICITY": 0.00120692, "INCLINATION": 97.7403, "RA_OF_ASC_NODE": 280.9282, "ARG_OF_PERICENTER": 229.0412, "MEAN_ANOMALY": 130.9763, "EPHEMERIS_TYPE": 0, "CLASSIFICATION_TYPE": "U", "NORAD_CAT_ID": 66654, "ELEMENT_SET_NO": 999, "REV_AT_EPOCH": 346, "BSTAR": 0.00014560655, "MEAN_MOTION_DOT": 1.426e-05, "MEAN_MOTION_DDOT": 0}, "tle": {"line1": "1 66654U 25274E   25353.85664801  .00001426  00000+0  14561-3 0  9995", "line2": "2 66654  97.7403 280.9282 0012069 229.0412 130.9763 14.92117883  3464"}}, "geometry": {"type": "Point", "coordinates": [-66.21519634293819, -57.66241300176236]}}, {"type": "Feature", "properties": {"norad_id": 66655, "name": "2025-274F", "group": "last-30-days", "lat": -78.09144846039969, "lon": -38.519428479473206, "alt_km": 600.9546127987323, "timestamp": "2025-12-20T07:33:49.512818+00:00", "meta": {"OBJECT_NAME": "2025-274F", "OBJECT_ID": "2025-274F", "EPOCH": "2025-12-19T20:39:09.808416", "MEAN_MOTION": 14.91177816, "ECCENTRICITY": 0.00049637, "INCLINATION": 97.7331, "RA_OF_ASC_NODE": 280.9182, "ARG_OF_PERICENTER": 359.7459, "MEAN_ANOMALY": 0.3756, "EPHEMERIS_TYPE": 0, "CLASSIFICATION_TYPE": "U", "NORAD_CAT_ID": 66655, "ELEMENT_SET_NO": 999, "REV_AT_EPOCH": 346, "BSTAR": -2.756834e-06, "MEAN_MOTION_DOT": -8.2e-07, "MEAN_MOTION_DDOT": 0}, "tle": {"line1": "1 66655U 25274F   25353.86053019 -.00000082  00000+0 -27568-5 0  9992", "line2": "2 66655  97.7331 280.9182 0004963 359.7459   0.3756 14.91177816  3463"}}, "geometry": {"type": "Point", "coordinates": [-38.519428479473206, -78.09144846039969]}}, {"type": "Feature", "properties": {"norad_id": 66656, "name": "2025-274G", "group": "last-30-days", "lat": -42.15973603675746, "lon": -71.54121881966688, "alt_km": 597.0759391234897, "timestamp": "2025-12-20T07:33:49.512834+00:00", "meta": {"OBJECT_NAME": "2025-274G", "OBJECT_ID": "2025-274G", "EPOCH": "2025-12-19T20:29:23.863488", "MEAN_MOTION": 14.92312609, "ECCENTRICITY": 0.00126249, "INCLINATION": 97.7401, "RA_OF_ASC_NODE": 280.9313, "ARG_OF_PERICENTER": 230.8123, "MEAN_ANOMALY": 129.1976, "EPHEMERIS_TYPE": 0, "CLASSIFICATION_TYPE": "U", "NORAD_CAT_ID": 66656, "ELEMENT_SET_NO": 999, "REV_AT_EPOCH": 346, "BSTAR": 0.0001541325, "MEAN_MOTION_DOT": 1.52e-05, "MEAN_MOTION_DDOT": 0}, "tle": {"line1": "1 66656U 25274G   25353.85374842  .00001520  00000+0  15413-3 0  9992", "line2": "2 66656  97.7401 280.9313 0012624 230.8123 129.1976 14.92312609  3464"}}, "geometry": {"type": "Point", "coordinates": [-71.54121881966688, -42.15973603675746]}}, {"type": "Feature", "properties": {"norad_id": 66657, "name": "SPIRONE", "group": "last-30-days", "lat": -27.194330399572515, "lon": -74.60215993318361, "alt_km": 595.3022232391577, "timestamp": "2025-12-20T07:33:49.512844+00:00", "meta": {"OBJECT_NAME": "SPIRONE", "OBJECT_ID": "2025-274H", "EPOCH": "2025-12-19T17:12:18.686880", "MEAN_MOTION": 14.92491265, "ECCENTRICITY": 0.00107624, "INCLINATION": 97.74, "RA_OF_ASC_NODE": 280.8026, "ARG_OF_PERICENTER": 249.673, "MEAN_ANOMALY": 110.3333, "EPHEMERIS_TYPE": 0, "CLASSIFICATION_TYPE": "U", "NORAD_CAT_ID": 66657, "ELEMENT_SET_NO": 999, "REV_AT_EPOCH": 344, "BSTAR": 0.0001484092, "MEAN_MOTION_DOT": 1.468e-05, "MEAN_MOTION_DDOT": 0}, "tle": {"line1": "1 66657U 25274H   25353.71688295  .00001468  00000+0  14841-3 0  9993", "line2": "2 66657  97.7400 280.8026 0010762 249.6730 110.3333 14.92491265  3440"}}, "geometry": {"type": "Point", "coordinates": [-74.60215993318361, -27.194330399572515]}}, {"type": "Feature", "properties": {"norad_id": 66658, "name": "2025-274J", "group": "last-30-days", "lat": -12.666082198949438, "lon": -76.85150400818314, "alt_km": 595.017015091441, "timestamp": "2025-12-20T07:33:49.512854+00:00", "meta": {"OBJECT_NAME": "2025-274J", "OBJECT_ID": "2025-274J", "EPOCH": "2025-12-19T09:05:48.692256", "MEAN_MOTION": 14.92660568, "ECCENTRICITY": 0.0011271, "INCLINATION": 97.7399, "RA_OF_ASC_NODE": 280.4766, "ARG_OF_PERICENTER": 254.1695, "MEAN_ANOMALY": 105.8282, "EPHEMERIS_TYPE": 0, "CLASSIFICATION_TYPE": "U", "NORAD_CAT_ID": 66658, "ELEMENT_SET_NO": 999, "REV_AT_EPOCH": 339, "BSTAR": 0.0001503, "MEAN_MOTION_DOT": 1.494e-05, "MEAN_MOTION_DDOT": 0}, "tle": {"line1": "1 66658U 25274J   25353.37903579  .00001494  00000+0  15030-3 0  9991", "line2": "2 66658  97.7399 280.4766 0011271 254.1695 105.8282 14.92660568  3392"}}, "geometry": {"type": "Point", "coordinates": [-76.85150400818314, -12.666082198949438]}}, {"type": "Feature", "properties": {"norad_id": 66659, "name": "JACK K", "group": "last-30-days", "lat": 2.9364958201545046, "lon": -78.99536155114652, "alt_km": 594.6369794395996, "timestamp": "2025-12-20T07:33:49.512865+00:00", "meta": {"OBJECT_NAME": "JACK K", "OBJECT_ID": "2025-274K", "EPOCH": "2025-12-19T09:01:45.234336", "MEAN_MOTION": 14.92845388, "ECCENTRICITY": 0.001198, "INCLINATION": 97.7401, "RA_OF_ASC_NODE": 280.481, "ARG_OF_PERICENTER": 255.6276, "MEAN_ANOMALY": 104.3614, "EPHEMERIS_TYPE": 0, "CLASSIFICATION_TYPE": "U", "NORAD_CAT_ID": 66659, "ELEMENT_SET_NO": 999, "REV_AT_EPOCH": 339, "BSTAR": 0.00014908, "MEAN_MOTION_DOT": 1.489e-05, "MEAN_MOTION_DDOT": 0}, "tle": {"line1": "1 66659U 25274K   25353.37621799  .00001489  00000+0  14908-3 0  9990", "line2": "2 66659  97.7401 280.4810 0011980 255.6276 104.3614 14.92845388  3393"}}, "geometry": {"type": "Point", "coordinates": [-78.99536155114652, 2.9364958201545046]}}, {"type": "Feature", "properties": {"norad_id": 66660, "name": "K-HERO", "group": "last-30-days", "lat": 15.56935456816304, "lon": -80.76122698455806, "alt_km": 594.1054590187987, "timestamp": "2025-12-20T07:33:49.512876+00:00", "meta": {"OBJECT_NAME": "K-HERO", "OBJECT_ID": "2025-274L", "EPOCH": "2025-12-19T08:58:28.231104", "MEAN_MOTION": 14.92997006, "ECCENTRICITY": 0.0012565, "INCLINATION": 97.7404, "RA_OF_ASC_NODE": 280.4848, "ARG_OF_PERICENTER": 256.3531, "MEAN_ANOMALY": 103.6289, "EPHEMERIS_TYPE": 0, "CLASSIFICATION_TYPE": "U", "NORAD_CAT_ID": 66660, "ELEMENT_SET_NO": 999, "REV_AT_EPOCH": 339, "BSTAR": 0.00016428, "MEAN_MOTION_DOT": 1.653e-05, "MEAN_MOTION_DDOT": 0}, "tle": {"line1": "1 66660U 25274L   25353.37393786  .00001653  00000+0  16428-3 0  9996", "line2": "2 66660  97.7404 280.4848 0012565 256.3531 103.6289 14.92997006  3396"}}, "geometry": {"type": "Point", "coordinates": [-80.76122698455806, 15.56935456816304]}}, {"type": "Feature", "properties": {"norad_id": 66661, "name": "SNUGLITE-III", "group": "last-30-days", "lat": 27.73461027676545, "lon": -82.68585361443661, "alt_km": 593.4125378345825, "timestamp": "2025-12-20T07:33:49.512887+00:00", "meta": {"OBJECT_NAME": "SNUGLITE-III", "OBJECT_ID": "2025-274M", "EPOCH": "2025-12-19T20:10:48.191520", "MEAN_MOTION": 14.93132875, "ECCENTRICITY": 0.00132091, "INCLINATION": 97.7405, "RA_OF_ASC_NODE": 280.9485, "ARG_OF_PERICENTER": 255.897, "MEAN_ANOMALY": 104.0781, "EPHEMERIS_TYPE": 0, "CLASSIFICATION_TYPE": "U", "NORAD_CAT_ID": 66661, "ELEMENT_SET_NO": 999, "REV_AT_EPOCH": 346, "BSTAR": 0.00013259981, "MEAN_MOTION_DOT": 1.328e-05, "MEAN_MOTION_DDOT": 0}, "tle": {"line1": "1 66661U 25274M   25353.84083555  .00001328  00000+0  13260-3 0  9999", "line2": "2 66661  97.7405 280.9485 0013209 255.8970 104.0781 14.93132875  3463"}}, "geometry": {"type": "Point", "coordinates": [-82.68585361443661, 27.73461027676545]}}, {"type": "Feature", "properties": {"norad_id": 66662, "name": "2025-274N", "group": "last-30-days", "lat": 32.510176996099304, "lon": -83.55558268138543, "alt_km": 593.25349811874, "timestamp": "2025-12-20T07:33:49.512924+00:00", "meta": {"OBJECT_NAME": "2025-274N", "OBJECT_ID": "2025-274N", "EPOCH": "2025-12-19T20:09:31.859712", "MEAN_MOTION": 14.93187777, "ECCENTRICITY": 0.00136202, "INCLINATION": 97.7406, "RA_OF_ASC_NODE": 280.9499, "ARG_OF_PERICENTER": 255.651, "MEAN_ANOMALY": 104.3198, "EPHEMERIS_TYPE": 0, "CLASSIFICATION_TYPE": "U", "NORAD_CAT_ID": 66662, "ELEMENT_SET_NO": 999, "REV_AT_EPOCH": 346, "BSTAR": 0.0001444986, "MEAN_MOTION_DOT": 1.454e-05, "MEAN_MOTION_DDOT": 0}, "tle": {"line1": "1 66662U 25274N   25353.83995208  .00001454  00000+0  14450-3 0  9998", "line2": "2 66662  97.7406 280.9499 0013620 255.6510 104.3198 14.93187777  3461"}}, "geometry": {"type": "Point", "coordinates": [-83.55558268138543, 32.510176996099304]}}, {"type": "Feature", "properties": {"norad_id": 66663, "name": "KSLV-II R/B", "group": "last-30-days", "lat": 29.99382444365927, "lon": -82.91781352419837, "alt_km": 578.1171931958706, "timestamp": "2025-12-20T07:33:49.512936+00:00", "meta": {"OBJECT_NAME": "KSLV-II R/B", "OBJECT_ID": "2025-274P", "EPOCH": "2025-12-19T21:48:24.651360", "MEAN_MOTION": 14.97453325, "ECCENTRICITY": 0.00567536, "INCLINATION": 97.7442, "RA_OF_ASC_NODE": 281.1844, "ARG_OF_PERICENTER": 294.3607, "MEAN_ANOMALY": 65.1697, "EPHEMERIS_TYPE": 0, "CLASSIFICATION_TYPE": "U", "NORAD_CAT_ID": 66663, "ELEMENT_SET_NO": 999, "REV_AT_EPOCH": 348, "BSTAR": 0.001096748, "MEAN_MOTION_DOT": 0.0001315, "MEAN_MOTION_DDOT": 0}, "tle": {"line1": "1 66663U 25274P   25353.90861865  .00013150  00000+0  10967-2 0  9992", "line2": "2 66663  97.7442 281.1844 0056753 294.3607  65.1697 14.97453325  3489"}}, "geometry": {"type": "Point", "coordinates": [-82.91781352419837, 29.99382444365927]}}]}